PERSEUS-M1              
1 40039U 14033AF  26168.37067176  .00001219  00000+0  11511-3 0  9991
2 40039  97.9641 112.5054 0010292 300.6597  59.3608 14.95631078650664
POLYITAN-1              
1 40042U 14033AJ  26168.05228331  .00015900  00000+0  49659-3 0  9998
2 40042  98.0938 194.3006 0008630 141.6733 218.5122 15.33254216653573
TIGRISAT                
1 40043U 14033AK  26168.38535646  .00001661  00000+0  19587-3 0  9991
2 40043  97.7829 318.3922 0050591  74.5854 286.0942 14.85162991645659
AEROCUBE 6A             
1 40045U 14033AM  26168.42431250  .00004245  00000+0  35804-3 0  9995
2 40045  97.7245 335.3700 0038892  17.3108 342.9430 14.98111477646655
AEROCUBE 6B             
1 40046U 14033AN  26168.42641098  .00003974  00000+0  32325-3 0  9992
2 40046  97.7243 335.1630 0038273   8.5458 351.6408 14.99571864646795
CANX-4                  
1 40055U 14034C   26167.61149139  .00000755  00000+0  10412-3 0  9999
2 40055  98.3123  42.9035 0013211  18.8491 341.3206 14.81263782644447
CANX-5                  
1 40056U 14034D   26168.48807771  .00000730  00000+0  10089-3 0  9992
2 40056  98.3123  43.8558 0013153  16.3316 343.8316 14.81282375635383
UKUBE-1                 
1 40074U 14037F   26168.23436609  .00006818  00000+0  38455-3 0  9996
2 40074  98.4230 171.5112 0002593 132.6060 227.5387 15.13553312648560
BRITE-PL2 (HEWELIUSZ)   
1 40119U 14049B   26168.30625382  .00001474  00000+0  14142-3 0  9995
2 40119  97.9098 280.3070 0015287 108.1430 252.1456 14.94593460641460
AEROCUBE 5C             
1 40965U 15058B   26168.50608647  .00001718  00000+0  16077-3 0  9992
2 40965  64.7676 261.5986 0130757  63.1470 298.2940 14.91454811365706
AEROCUBE 7              
1 40966U 15058C   26168.50150936  .00002489  00000+0  20685-3 0  9992
2 40966  64.7618 243.8315 0120478  61.5772 299.7422 14.95727167366004
FOX-1A (AO-85)          
1 40967U 15058D   26168.48670985  .00001829  00000+0  17239-3 0  9999
2 40967  64.7761 278.0532 0130490  56.4670 304.8826 14.90970839113614
SINOD-D 1               
1 40968U 15058E   26168.47942456  .00002427  00000+0  20174-3 0  9991
2 40968  64.7753 257.9976 0119049  52.9638 308.2295 14.95907069116707
SNAP-3 ALICE            
1 40970U 15058G   26168.23785424  .00095632  00000+0  11402-2 0  9991
2 40970  64.7502 103.7563 0028205  12.8584 347.3274 15.60063664116898
LMRST-SAT               
1 40971U 15058H   26168.37499764  .00001664  00000+0  15926-3 0  9994
2 40971  64.7765 274.7384 0132086  58.5457 302.8488 14.90590474113581
SNAP-3 EDDIE            
1 40972U 15058J   26168.09976566  .00103426  00000+0  11741-2 0  9993
2 40972  64.7426  94.9589 0027728  16.8324 343.3735 15.61322960119012
PROPCUBE 3              
1 40973U 15058K   26168.34319485  .00002068  00000+0  17976-3 0  9990
2 40973  64.7684 252.0485 0124039  59.8560 301.4776 14.94257973114823
BISONSAT                
1 40974U 15058L   26168.29702110  .00009510  00000+0  46212-3 0  9990
2 40974  64.7578 173.2895 0079034  47.2137 313.5598 15.16191198115637
SNAP-3 JIMI             
1 40975U 15058M   26168.32233762  .00003403  00000+0  24014-3 0  9998
2 40975  64.7634 219.3451 0106175  55.3138 305.7928 15.02298421114247
PROPCUBE 1 (FLORA)      
1 40976U 15058N   26168.46440712  .00001735  00000+0  17177-3 0  9997
2 40976  64.7756 294.3766 0130766  60.8157 300.5963 14.89223140116301
SINOD-D 3               
1 40977U 15058P   26168.50878235  .00002453  00000+0  21407-3 0  9997
2 40977  64.7731 274.8150 0119278  58.0074 303.2566 14.94017599114804
HORYU-4                 
1 41340U 16012D   26166.43547623  .00392649  54783-4  97992-3 0  9990
2 41340  30.9849  91.8834 0005149 261.3375  98.6703 15.94546005570538
RAVAN                   
1 41849U 16067B   26167.65748729  .00041884  00000+0  63214-3 0  9999
2 41849  97.9887  57.1683 0004516  33.6993 326.4546 15.54635153527614
CELTEE 1                
1 41850U 16067C   26168.14125865  .00003822  00000+0  18275-3 0  9993
2 41850  98.0668  34.7051 0000924 126.2497 233.8822 15.19681827525876
OPTICUBE 04             
1 41851U 16067D   26168.14546869  .00002108  00000+0  13501-3 0  9998
2 41851  98.0694  20.4269 0016853 115.8157 244.4811 15.09658447525163
AEROCUBE 8D             
1 41852U 16067E   26167.56481058  .00005637  00000+0  23333-3 0  9996
2 41852  98.0677  37.6889 0004668 124.6524 235.5152 15.24390236525974
AEROCUBE 8C             
1 41853U 16067F   26168.11494495  .00006089  00000+0  24980-3 0  9999
2 41853  98.0547  35.5083 0006610  69.3515 290.8429 15.24645087526056
CORVUS BC2              
1 42846U 17042X   26168.46057889  .00003323  00000+0  22972-3 0  9993
2 42846  97.4067 329.7991 0014358 109.6368 250.6411 15.06299036487103
CORVUS BC1              
1 42847U 17042Y   26168.18946727  .00002952  00000+0  20369-3 0  9996
2 42847  97.4101 330.3528 0013369  89.2035 271.0724 15.06467097487098
MAKERSAT 0              
1 43016U 17073D   26167.91868252  .00014378  00000+0  39184-3 0  9995
2 43016  97.4619  50.4356 0105097 273.9558  84.9674 15.32091803466428
