OBJECT_NAME,OBJECT_ID,EPOCH,MEAN_MOTION,ECCENTRICITY,INCLINATION,RA_OF_ASC_NODE,ARG_OF_PERICENTER,MEAN_ANOMALY,EPHEMERIS_TYPE,CLASSIFICATION_TYPE,NORAD_CAT_ID,ELEMENT_SET_NO,REV_AT_EPOCH,BSTAR,MEAN_MOTION_DOT,MEAN_MOTION_DDOT
PERSEUS-M1,2014-033AF,2026-06-17T08:53:46.040064,14.95631078,.0010292,97.9641,112.5054,300.6597,59.3608,0,U,40039,999,65066,.11511E-3,.1219E-4,0
POLYITAN-1,2014-033AJ,2026-06-17T01:15:17.277984,15.33254216,.000863,98.0938,194.3006,141.6733,218.5122,0,U,40042,999,65357,.49659E-3,.159E-3,0
TIGRISAT,2014-033AK,2026-06-17T09:14:54.798144,14.85162991,.0050591,97.7829,318.3922,74.5854,286.0942,0,U,40043,999,64565,.19587E-3,.1661E-4,0
AEROCUBE 6A,2014-033AM,2026-06-17T10:11:00.600000,14.98111477,.0038892,97.7245,335.3700,17.3108,342.9430,0,U,40045,999,64665,.35804E-3,.4245E-4,0
AEROCUBE 6B,2014-033AN,2026-06-17T10:14:01.908672,14.99571864,.0038273,97.7243,335.1630,8.5458,351.6408,0,U,40046,999,64679,.32325E-3,.3974E-4,0
CANX-4,2014-034C,2026-06-16T14:40:32.856096,14.81263782,.0013211,98.3123,42.9035,18.8491,341.3206,0,U,40055,999,64444,.10412E-3,.755E-5,0
CANX-5,2014-034D,2026-06-17T11:42:49.914144,14.81282375,.0013153,98.3123,43.8558,16.3316,343.8316,0,U,40056,999,63538,.10089E-3,.73E-5,0
UKUBE-1,2014-037F,2026-06-17T05:37:29.230176,15.13553312,.0002593,98.4230,171.5112,132.6060,227.5387,0,U,40074,999,64856,.38455E-3,.6818E-4,0
BRITE-PL2 (HEWELIUSZ),2014-049B,2026-06-17T07:21:00.330048,14.94593460,.0015287,97.9098,280.3070,108.1430,252.1456,0,U,40119,999,64146,.14142E-3,.1474E-4,0
AEROCUBE 5C,2015-058B,2026-06-17T12:08:45.871008,14.91454811,.0130757,64.7676,261.5986,63.1470,298.2940,0,U,40965,999,36570,.16077E-3,.1718E-4,0
AEROCUBE 7,2015-058C,2026-06-17T12:02:10.408704,14.95727167,.0120478,64.7618,243.8315,61.5772,299.7422,0,U,40966,999,36600,.20685E-3,.2489E-4,0
FOX-1A (AO-85),2015-058D,2026-06-17T11:40:51.731040,14.90970839,.013049,64.7761,278.0532,56.4670,304.8826,0,U,40967,999,11361,.17239E-3,.1829E-4,0
SINOD-D 1,2015-058E,2026-06-17T11:30:22.281984,14.95907069,.0119049,64.7753,257.9976,52.9638,308.2295,0,U,40968,999,11670,.20174E-3,.2427E-4,0
SNAP-3 ALICE,2015-058G,2026-06-17T05:42:30.606336,15.60063664,.0028205,64.7502,103.7563,12.8584,347.3274,0,U,40970,999,11689,.11402E-2,.95632E-3,0
LMRST-SAT,2015-058H,2026-06-17T08:59:59.796096,14.90590474,.0132086,64.7765,274.7384,58.5457,302.8488,0,U,40971,999,11358,.15926E-3,.1664E-4,0
SNAP-3 EDDIE,2015-058J,2026-06-17T02:23:39.753024,15.61322960,.0027728,64.7426,94.9589,16.8324,343.3735,0,U,40972,999,11901,.11741E-2,.103426E-2,0
PROPCUBE 3,2015-058K,2026-06-17T08:14:12.035040,14.94257973,.0124039,64.7684,252.0485,59.8560,301.4776,0,U,40973,999,11482,.17976E-3,.2068E-4,0
BISONSAT,2015-058L,2026-06-17T07:07:42.623040,15.16191198,.0079034,64.7578,173.2895,47.2137,313.5598,0,U,40974,999,11563,.46212E-3,.951E-4,0
SNAP-3 JIMI,2015-058M,2026-06-17T07:44:09.970368,15.02298421,.0106175,64.7634,219.3451,55.3138,305.7928,0,U,40975,999,11424,.24014E-3,.3403E-4,0
PROPCUBE 1 (FLORA),2015-058N,2026-06-17T11:08:44.775168,14.89223140,.0130766,64.7756,294.3766,60.8157,300.5963,0,U,40976,999,11630,.17177E-3,.1735E-4,0
SINOD-D 3,2015-058P,2026-06-17T12:12:38.795040,14.94017599,.0119278,64.7731,274.8150,58.0074,303.2566,0,U,40977,999,11480,.21407E-3,.2453E-4,0
HORYU-4,2016-012D,2026-06-15T10:27:05.146272,15.94546005,.00051492,30.9849,91.8834,261.3375,98.6703,0,U,41340,999,57053,.9799184E-3,.392649E-2,.54782598E-4
RAVAN,2016-067B,2026-06-16T15:46:46.901856,15.54635153,.0004516,97.9887,57.1683,33.6993,326.4546,0,U,41849,999,52761,.63214E-3,.41884E-3,0
CELTEE 1,2016-067C,2026-06-17T03:23:24.747360,15.19681827,.0000924,98.0668,34.7051,126.2497,233.8822,0,U,41850,999,52587,.18275E-3,.3822E-4,0
OPTICUBE 04,2016-067D,2026-06-17T03:29:28.494816,15.09658447,.0016853,98.0694,20.4269,115.8157,244.4811,0,U,41851,999,52516,.13501E-3,.2108E-4,0
AEROCUBE 8D,2016-067E,2026-06-16T13:33:19.634112,15.24390236,.0004668,98.0677,37.6889,124.6524,235.5152,0,U,41852,999,52597,.23333E-3,.5637E-4,0
AEROCUBE 8C,2016-067F,2026-06-17T02:45:31.243680,15.24645087,.000661,98.0547,35.5083,69.3515,290.8429,0,U,41853,999,52605,.2498E-3,.6089E-4,0
CORVUS BC2,2017-042X,2026-06-17T11:03:14.016096,15.06299036,.0014358,97.4067,329.7991,109.6368,250.6411,0,U,42846,999,48710,.22972E-3,.3323E-4,0
CORVUS BC1,2017-042Y,2026-06-17T04:32:49.972128,15.06467097,.0013369,97.4101,330.3528,89.2035,271.0724,0,U,42847,999,48709,.20369E-3,.2952E-4,0
MAKERSAT 0,2017-073D,2026-06-16T22:02:54.169728,15.32091803,.0105097,97.4619,50.4356,273.9558,84.9674,0,U,43016,999,46642,.39184E-3,.14378E-3,0
